

;--------- THIS CODE HAS BEEN PROCESSED BY P2PP v9.01.05 --- 

; generated by PrusaSlicer 2.6.1+win64 on 2024-01-15 at 10:00:00 UTC
;
; Two-color Palette 3 example gcode for Moonraker/Klipper + p2pp_headless.py
;
; CONNECTED MODE (no ACCESSORYMODE_MAFX):
;   p2pp_headless.py output: .mcfx zip with print.gcode + palette.json
;   Pings: O31 L{mm} commands stripped by p2pp_headless.py
;
; KEY STRUCTURAL RULES (learned from reading p2pp/mcf.py + gcode.py):
;
;  1. Use G1 for travel moves, NOT G0.
;     P2PP only sets MOVEMENT bits for G1 commands.  G0 has MOVEMENT=0
;     and never updates backpass_line, so the first-pass back-classification
;     sweep triggered by ; CP TOOLCHANGE START would rewind all the way to
;     index -1 and reclassify the entire file as CLS_TOOL_START.
;
;  2. T{n} goes BETWEEN ; CP TOOLCHANGE UNLOAD and ; CP TOOLCHANGE LOAD.
;     PrusaSlicer emits the tool-change command here.  If T1 appears after
;     ; CP TOOLCHANGE END, the block stays CLS_TOOL_PURGE for the entire
;     layer-1 print body, which counts that extrusion twice in the wrong
;     splice slot.
;
;  3. A G1 X Y travel move is required immediately after ; CP TOOLCHANGE END.
;     CLS_ENDPURGE only transitions to CLS_NORMAL when a non-tower XY G1
;     move is encountered (first-pass check at mcf.py line ~417).  Without
;     it, layer-1 print moves stay CLS_TOOL_PURGE and are mis-classified.
;
;  4. Set EXTRAENDFILAMENT=0 for predictable splice positions.
;     P2PP defaults extra_runout_filament=150 (variables.py:173).  This is
;     added to the final splice position via gcode_process_toolchange(-1) at
;     mcf.py:102.  Without EXTRAENDFILAMENT=0 the last splice is 150 mm
;     longer than the sum of all extruded lengths + splice offset.
;
; EXPECTED P2PP OUTPUT (SPLICEOFFSET=100, EXTRAENDFILAMENT=0, extrusion_multiplier=1.0):
;
;   First pass block classification:
;     Layer-0 print G1 X E       → CLS_NORMAL  (extrusion counted)
;     G1 X160 Y70 before TC      → CLS_TOOL_START (back-classified)
;     ; CP TOOLCHANGE START      → CLS_TOOL_START
;     G1 X162 Y72 approach       → CLS_TOOL_START → comment, not counted
;     ; CP TOOLCHANGE UNLOAD     → CLS_TOOL_UNLOAD
;     G1 E-0.8 retract           → CLS_TOOL_UNLOAD → comment, not counted
;     T1                         → CLS_TOOL_PURGE (T sets it), then back-
;                                   classified to CLS_TOOL_UNLOAD by LOAD
;     ; CP TOOLCHANGE LOAD       → CLS_TOOL_UNLOAD (back-classifies T1)
;     G1 E0.8 prime              → CLS_TOOL_UNLOAD → comment, not counted
;     ; CP TOOLCHANGE WIPE       → CLS_TOOL_PURGE
;     G1 X160 Y90 E10 wipe       → CLS_TOOL_PURGE  (extrusion counted)
;     ; CP TOOLCHANGE END        → CLS_ENDPURGE
;     G1 X10 Y10 (first move)    → CLS_ENDPURGE → reclassified CLS_NORMAL
;     Layer-1 print G1 X E       → CLS_NORMAL  (extrusion counted)
;
;   Second pass splice calculation:
;     T0:  gcode_process_toolchange(0); current_tool=-1 → no splice, sets current_tool=0
;     Layer-0 extrudes 5×30 mm   =  150.000 mm  total_material_extruded
;     T1:  gcode_process_toolchange(1):
;            location = 150.000 + 100 = 250.000 mm
;            splice 1 → { position: 250.000, length: 250.000, tool: 0 }
;     Wipe extrudes 1×10 mm      =   10.000 mm  (credited to T1)
;     Layer-1 extrudes 5×30 mm   =  150.000 mm  total = 310.000 mm
;     End:  gcode_process_toolchange(-1):
;            location = 310.000 + 100 + 0 (EXTRAENDFILAMENT) = 410.000 mm
;            splice 2 → { position: 410.000, length: 160.000, tool: 1 }
;
;   palette.json:
;     [ {"id": 1, "length": 250.0},
;       {"id": 2, "length": 410.0} ]

; ============================================================
; START GCODE
; ============================================================

M190 S60 ; wait for bed temperature
M109 S200 T0 ; wait for nozzle temperature
M83 ; relative extrusion (required by P2PP)
G28 ; home all axes
G92 E0.00000 ; reset extruder

;P2PP PALETTE3
;P2PP SPLICEOFFSET=100
;P2PP EXTRAENDFILAMENT=0
;P2PP PRINTERPROFILE=30313233343536373031323334353637

; ============================================================
; GCODE BODY
; ============================================================

; [--P2PP-- Color Change] - T0
; gcode_process_toolchange(0): current_tool was -1, no splice; current_tool=0

; ---- Layer 0 — T0 (red) ------------------------------------

;BEFORE_LAYER_CHANGE
G92 E0.00000
;0.2

;LAYERHEIGHT 0.2
G1 Z0.200 F1800 ;recorded Z=0.2
G1 X10.000 Y10.000 F9000 ; travel (G1 XY, no E) — sets backpass_line here

; Print moves — X-only lines, each +30 mm extrusion
G1 X60.000 E30.00000 F1200 ; total =  30.000
G1 X10.000 E30.00000 ; total =  60.000
G1 X60.000 E30.00000 ; total =  90.000
G1 X10.000 E30.00000 ; total = 120.000
G1 X60.000 E30.00000 ; total = 150.000

; ---- Tool change T0 → T1 -----------------------------------

;BEFORE_LAYER_CHANGE
G92 E0.00000
;0.4

;LAYERHEIGHT 0.4
G1 Z0.400 F1800 ;recorded Z=0.4

; Travel to wipe tower — this G1 XY (no E) updates backpass_line to HERE.
; When ; CP TOOLCHANGE START is parsed, back-classification rewinds only
; to this line — layer-0 print moves above remain CLS_NORMAL.
; [--P2PP-- tool unload] - G1 X160.000 Y70.000 F9000

; CP TOOLCHANGE START
; [--P2PP-- tool unload] - G1 X162.000 Y72.000 F9000

; CP TOOLCHANGE UNLOAD
; [--P2PP-- tool unload] - G1 E-0.80000 F2100

; [--P2PP-- Color Change] - T1
; T1 fires gcode_process_toolchange(1):
;   location = 150.000 + 100 = 250.000 mm
;   splice 1: { position=250.000, length=250.000, tool=0 }
;   current_tool = 1
; Block initially = CLS_TOOL_PURGE (T sets it), then back-classified to
; CLS_TOOL_UNLOAD by the ; CP TOOLCHANGE LOAD marker below.

; CP TOOLCHANGE LOAD
; [--P2PP-- tool unload] - G1 E0.80000 F2100

G1 X162.000 Y72.000 F8640 ; P2PP positional alignment
G1 Z0.400 F8640 ; P2PP positional alignment
; CP TOOLCHANGE WIPE
G1 F8640 ; correct speed
G1 X160.000 Y90.000 E10.00000 F1200 ; +10.000 mm (CLS_TOOL_PURGE, counted)
;   total_material_extruded = 160.000 mm

; CP TOOLCHANGE END
; Block = CLS_ENDPURGE.  The FIRST non-tower G1 XY move below triggers
; the CLS_ENDPURGE → CLS_NORMAL transition (mcf.py first-pass line ~417).
G1 X10.000 Y10.000 F9000 ; ← triggers ENDPURGE→NORMAL; no E, not counted

; ---- Layer 1 — T1 (green) ----------------------------------

;P2PP START Z/E alignment processing
G1 Z0.400 ;>P2PP correct z-moves<
G1 F1200 ; P2PP Correct for speed, top to PURGETOPSPEED
;P2PP END Z/E alignment processing
G1 X60.000 E30.00000 F1200 ; total = 190.000
G1 X10.000 E30.00000 ; total = 220.000
G1 X60.000 E30.00000 ; total = 250.000
G1 X10.000 E30.00000 ; total = 280.000
G1 X60.000 E30.00000 ; total = 310.000

; ============================================================
; END GCODE
; ============================================================

M104 S0
M140 S0
G1 X0.000 Y200.000 F9000
M84

; gcode_process_toolchange(-1) called at end of second pass:
;   location = 310.000 + 100 + 0 (EXTRAENDFILAMENT) = 410.000 mm
;   splice 2: { position=410.000, length=160.000, tool=1 }

; ============================================================
; RUNTIME SUMMARY — parse_config_parameters() stops here
; ============================================================

; filament used [mm] = 460.00
; filament used [g] = 1.38
; filament cost = 0.00
; estimated printing time (normal mode) = 2m 0s

; ============================================================
; PRUSASLICER CONFIG DUMP — parsed backward by P2PP
; ============================================================

; bed_shape = 0x0, 250x0, 250x210, 0x210
; extruder_colour = #FF0000;#00FF00
; extrusion_width = 0.45
; filament_diameter = 1.75,1.75
; filament_type = PLA;PLA
; first_layer_height = 0.2
; first_layer_temperature = 200,200
; gcode_flavor = marlin2
; layer_height = 0.2
; nozzle_diameter = 0.4,0.4
; single_extruder_multi_material_priming = 0
; skirts = 0
; start_gcode = M190 S60\nM109 S200 T0\nM83\nG28\nG92 E0\n;P2PP PALETTE3\n;P2PP SPLICEOFFSET=100\n;P2PP EXTRAENDFILAMENT=0\n;P2PP PRINTERPROFILE=30313233343536373031323334353637
; use_relative_e_distances = 1
; variable_layer_height = 0
; wipe_tower_no_sparse_layers = 0
; wipe_tower_width = 60
; wipe_tower_x = 160
; wipe_tower_y = 70
; wiping_volumes_matrix = 140,140,140,140
